[{"OBJECT_NAME":"STARLINK-5209","OBJECT_ID":"2022-136L","EPOCH":"2026-03-09T20:21:09.214848","MEAN_MOTION":15.08857145,"ECCENTRICITY":0.00014375,"INCLINATION":53.2181,"RA_OF_ASC_NODE":308.0224,"ARG_OF_PERICENTER":87.1231,"MEAN_ANOMALY":272.9926,"EPHEMERIS_TYPE":0,"CLASSIFICATION_TYPE":"U","NORAD_CAT_ID":54061,"ELEMENT_SET_NO":999,"REV_AT_EPOCH":18736,"BSTAR":0.00012387334,"MEAN_MOTION_DOT":1.685e-5,"MEAN_MOTION_DDOT":0},{"OBJECT_NAME":"CZ-6A DEB","OBJECT_ID":"2022-151VT","EPOCH":"2026-03-09T17:17:01.578624","MEAN_MOTION":15.13055612,"ECCENTRICITY":0.00307053,"INCLINATION":98.6048,"RA_OF_ASC_NODE":145.9599,"ARG_OF_PERICENTER":176.0049,"MEAN_ANOMALY":184.143,"EPHEMERIS_TYPE":0,"CLASSIFICATION_TYPE":"U","NORAD_CAT_ID":55202,"ELEMENT_SET_NO":999,"REV_AT_EPOCH":17179,"BSTAR":0.0062201193,"MEAN_MOTION_DOT":0.00112789,"MEAN_MOTION_DDOT":0}]
